{
  "type": "FeatureCollection",
  "features": [
    {
      "type": "Feature",
      "properties": {
        "norad_id": 29985,
        "name": "FENGYUN 1C DEB",
        "group": "fengyun-1c-debris",
        "lat": 67.65960263655803,
        "lon": -29.258543916184877,
        "alt_km": 871.2164794139626,
        "timestamp": "2025-12-03T06:58:43.510815+00:00",
        "meta_object_name": "FENGYUN 1C DEB",
        "meta_object_id": "1999-025LK",
        "meta_epoch": "2025-12-02T19:33:24.113088",
        "meta_mean_motion": 14.10320684,
        "meta_eccentricity": 0.0027727,
        "meta_inclination": 98.7112,
        "meta_ra_of_asc_node": 352.1861,
        "meta_arg_of_pericenter": 237.8511,
        "meta_mean_anomaly": 296.6418,
        "meta_ephemeris_type": 0,
        "meta_classification_type": "U",
        "meta_norad_cat_id": 29985,
        "meta_element_set_no": 999,
        "meta_rev_at_epoch": 97208,
        "meta_bstar": 7.6231e-05,
        "meta_mean_motion_dot": 9.3e-07,
        "meta_mean_motion_ddot": 0,
        "tle_line1": "1 29985U 99025LK  25336.81486242  .00000093  00000+0  76231-4 0  9996",
        "tle_line2": "2 29985  98.7112 352.1861 0027727 237.8511 296.6418 14.10320684972082"
      },
      "geometry": {
        "type": "Point",
        "coordinates": [
          -29.258543916184877,
          67.65960263655803
        ]
      }
    },
    {
      "type": "Feature",
      "properties": {
        "norad_id": 29986,
        "name": "FENGYUN 1C DEB",
        "group": "fengyun-1c-debris",
        "lat": 56.01964179128873,
        "lon": -121.54561948026979,
        "alt_km": 790.9534817907443,
        "timestamp": "2025-12-03T06:58:43.510826+00:00",
        "meta_object_name": "FENGYUN 1C DEB",
        "meta_object_id": "1999-025LL",
        "meta_epoch": "2025-12-02T03:39:33.274080",
        "meta_mean_motion": 14.2908316,
        "meta_eccentricity": 0.00230565,
        "meta_inclination": 99.4003,
        "meta_ra_of_asc_node": 42.9999,
        "meta_arg_of_pericenter": 30.3268,
        "meta_mean_anomaly": 359.1143,
        "meta_ephemeris_type": 0,
        "meta_classification_type": "U",
        "meta_norad_cat_id": 29986,
        "meta_element_set_no": 999,
        "meta_rev_at_epoch": 97356,
        "meta_bstar": 0.0018073819,
        "meta_mean_motion_dot": 4.545e-05,
        "meta_mean_motion_ddot": 0,
        "tle_line1": "1 29986U 99025LL  25336.15246845  .00004545  00000+0  18074-2 0  9992",
        "tle_line2": "2 29986  99.4003  42.9999 0023056  30.3268 359.1143 14.29083160973561"
      },
      "geometry": {
        "type": "Point",
        "coordinates": [
          -121.54561948026979,
          56.01964179128873
        ]
      }
    },
    {
      "type": "Feature",
      "properties": {
        "norad_id": 29987,
        "name": "FENGYUN 1C DEB",
        "group": "fengyun-1c-debris",
        "lat": -36.16809072455938,
        "lon": 42.73180293528511,
        "alt_km": 808.6469327923141,
        "timestamp": "2025-12-03T06:58:43.510837+00:00",
        "meta_object_name": "FENGYUN 1C DEB",
        "meta_object_id": "1999-025LM",
        "meta_epoch": "2025-12-02T16:37:59.835360",
        "meta_mean_motion": 14.14384879,
        "meta_eccentricity": 0.00807995,
        "meta_inclination": 98.8976,
        "meta_ra_of_asc_node": 228.7123,
        "meta_arg_of_pericenter": 262.5935,
        "meta_mean_anomaly": 152.8173,
        "meta_ephemeris_type": 0,
        "meta_classification_type": "U",
        "meta_norad_cat_id": 29987,
        "meta_element_set_no": 999,
        "meta_rev_at_epoch": 96231,
        "meta_bstar": 0.0035187611,
        "meta_mean_motion_dot": 6.908e-05,
        "meta_mean_motion_ddot": 0,
        "tle_line1": "1 29987U 99025LM  25336.69305365  .00006908  00000+0  35188-2 0  9995",
        "tle_line2": "2 29987  98.8976 228.7123 0080799 262.5935 152.8173 14.14384879962311"
      },
      "geometry": {
        "type": "Point",
        "coordinates": [
          42.73180293528511,
          -36.16809072455938
        ]
      }
    },
    {
      "type": "Feature",
      "properties": {
        "norad_id": 29988,
        "name": "FENGYUN 1C DEB",
        "group": "fengyun-1c-debris",
        "lat": 73.51292325044048,
        "lon": -67.97101710708081,
        "alt_km": 670.311529787411,
        "timestamp": "2025-12-03T06:58:43.510847+00:00",
        "meta_object_name": "FENGYUN 1C DEB",
        "meta_object_id": "1999-025LN",
        "meta_epoch": "2025-12-02T21:07:17.133888",
        "meta_mean_motion": 14.50177065,
        "meta_eccentricity": 0.0121253,
        "meta_inclination": 98.6966,
        "meta_ra_of_asc_node": 80.4635,
        "meta_arg_of_pericenter": 48.2954,
        "meta_mean_anomaly": 71.5848,
        "meta_ephemeris_type": 0,
        "meta_classification_type": "U",
        "meta_norad_cat_id": 29988,
        "meta_element_set_no": 999,
        "meta_rev_at_epoch": 97924,
        "meta_bstar": 0.0020641,
        "meta_mean_motion_dot": 8.776e-05,
        "meta_mean_motion_ddot": 0,
        "tle_line1": "1 29988U 99025LN  25336.88005942  .00008776  00000+0  20641-2 0  9998",
        "tle_line2": "2 29988  98.6966  80.4635 0121253  48.2954  71.5848 14.50177065979244"
      },
      "geometry": {
        "type": "Point",
        "coordinates": [
          -67.97101710708081,
          73.51292325044048
        ]
      }
    },
    {
      "type": "Feature",
      "properties": {
        "norad_id": 29989,
        "name": "FENGYUN 1C DEB",
        "group": "fengyun-1c-debris",
        "lat": 67.64518092427981,
        "lon": 158.10614907861225,
        "alt_km": 865.5474958850991,
        "timestamp": "2025-12-03T06:58:43.510858+00:00",
        "meta_object_name": "FENGYUN 1C DEB",
        "meta_object_id": "1999-025LP",
        "meta_epoch": "2025-12-02T10:43:24.301056",
        "meta_mean_motion": 14.15808434,
        "meta_eccentricity": 0.01227687,
        "meta_inclination": 98.6668,
        "meta_ra_of_asc_node": 315.515,
        "meta_arg_of_pericenter": 225.299,
        "meta_mean_anomaly": 267.4198,
        "meta_ephemeris_type": 0,
        "meta_classification_type": "U",
        "meta_norad_cat_id": 29989,
        "meta_element_set_no": 999,
        "meta_rev_at_epoch": 97465,
        "meta_bstar": 0.00021730333,
        "meta_mean_motion_dot": 4.16e-06,
        "meta_mean_motion_ddot": 0,
        "tle_line1": "1 29989U 99025LP  25336.44680904  .00000416  00000+0  21730-3 0  9992",
        "tle_line2": "2 29989  98.6668 315.5150 0122768 225.2990 267.4198 14.15808434974653"
      },
      "geometry": {
        "type": "Point",
        "coordinates": [
          158.10614907861225,
          67.64518092427981
        ]
      }
    },
    {
      "type": "Feature",
      "properties": {
        "norad_id": 29992,
        "name": "FENGYUN 1C DEB",
        "group": "fengyun-1c-debris",
        "lat": 61.77012618962755,
        "lon": 169.3110065080882,
        "alt_km": 833.5504929353929,
        "timestamp": "2025-12-03T06:58:43.510868+00:00",
        "meta_object_name": "FENGYUN 1C DEB",
        "meta_object_id": "1999-025LS",
        "meta_epoch": "2025-12-02T13:58:41.117376",
        "meta_mean_motion": 14.1160581,
        "meta_eccentricity": 0.00883564,
        "meta_inclination": 98.7297,
        "meta_ra_of_asc_node": 331.9915,
        "meta_arg_of_pericenter": 196.4947,
        "meta_mean_anomaly": 283.6704,
        "meta_ephemeris_type": 0,
        "meta_classification_type": "U",
        "meta_norad_cat_id": 29992,
        "meta_element_set_no": 999,
        "meta_rev_at_epoch": 97244,
        "meta_bstar": 0.00014259473,
        "meta_mean_motion_dot": 2.26e-06,
        "meta_mean_motion_ddot": 0,
        "tle_line1": "1 29992U 99025LS  25336.58242034  .00000226  00000+0  14259-3 0  9996",
        "tle_line2": "2 29992  98.7297 331.9915 0088356 196.4947 283.6704 14.11605810972449"
      },
      "geometry": {
        "type": "Point",
        "coordinates": [
          169.3110065080882,
          61.77012618962755
        ]
      }
    },
    {
      "type": "Feature",
      "properties": {
        "norad_id": 29993,
        "name": "FENGYUN 1C DEB",
        "group": "fengyun-1c-debris",
        "lat": -17.38806982720861,
        "lon": -168.5121830348219,
        "alt_km": 893.4399155499632,
        "timestamp": "2025-12-03T06:58:43.510878+00:00",
        "meta_object_name": "FENGYUN 1C DEB",
        "meta_object_id": "1999-025LT",
        "meta_epoch": "2025-12-02T16:23:57.901056",
        "meta_mean_motion": 14.08143172,
        "meta_eccentricity": 0.0038892,
        "meta_inclination": 98.7948,
        "meta_ra_of_asc_node": 13.6747,
        "meta_arg_of_pericenter": 343.5059,
        "meta_mean_anomaly": 16.4843,
        "meta_ephemeris_type": 0,
        "meta_classification_type": "U",
        "meta_norad_cat_id": 29993,
        "meta_element_set_no": 999,
        "meta_rev_at_epoch": 97028,
        "meta_bstar": 0.0001893,
        "meta_mean_motion_dot": 2.82e-06,
        "meta_mean_motion_ddot": 0,
        "tle_line1": "1 29993U 99025LT  25336.68330904  .00000282  00000+0  18930-3 0  9994",
        "tle_line2": "2 29993  98.7948  13.6747 0038892 343.5059  16.4843 14.08143172970289"
      },
      "geometry": {
        "type": "Point",
        "coordinates": [
          -168.5121830348219,
          -17.38806982720861
        ]
      }
    }
  ]
}